{"fetched_at":"2026-03-29T16:36:15Z","count":15609,"tles":[{"name":"STARLINK-5135","line1":"1 54005U 22125AT  26087.81431413  .00002594  00000+0  18090-3 0  9994","line2":"2 54005  53.2164 127.9873 0001280  90.2413 269.8726 15.08856277192353","category":"Starlink"}]}